IRIDIUM 116             
1 43072U 17083C   25263.00152968  .00000113  00000+0  33345-4 0  9990
2 43072  86.3908  74.9469 0002243  83.3530 276.7921 14.34217540405446
IRIDIUM 130             
1 43073U 17083D   25262.96980567 -.00000014  00000+0 -12140-4 0  9991
2 43073  86.3918  75.2097 0002356  85.6440 274.5025 14.34217200405386
IRIDIUM 151             
1 43074U 17083E   25262.94443419 -.00000028  00000+0 -17202-4 0  9999
2 43074  86.3910  75.0226 0002108  84.0424 276.1012 14.34217067405409
IRIDIUM 134             
1 43075U 17083F   25262.91272197 -.00000003  00000+0 -82810-5 0  9991
2 43075  86.3913  75.0403 0002305  86.8445 273.3014 14.34217367405361
IRIDIUM 137             
1 43076U 17083G   25262.99517513 -.00000022  00000+0 -15086-4 0  9995
2 43076  86.3914  75.0933 0001933  71.5623 288.5782 14.34217260405447
IRIDIUM 141             
1 43077U 17083H   25262.91906393  .00000029  00000+0  33070-5 0  9995
2 43077  86.3908  74.9707 0002060  92.9651 267.1780 14.34217619405436
IRIDIUM 153             
1 43078U 17083J   25262.94101143 -.00000063  00000+0 -29668-4 0  9996
2 43078  86.3964  43.4228 0002005 104.9849 255.1569 14.34217198406547
IRIDIUM 131             
1 43079U 17083K   25262.97614716 -.00000022  00000+0 -14746-4 0  9991
2 43079  86.3915  75.1153 0001870  90.9433 269.1977 14.34217140405370
